NORAD_CAT_ID,OBJECT_NAME,OBJECT_TYPE,EPOCH,MEAN_MOTION,ECCENTRICITY,INCLINATION,RA_OF_ASC_NODE,ARG_OF_PERICENTER,MEAN_ANOMALY,BSTAR,MEAN_MOTION_DOT,MEAN_MOTION_DDOT,TLE_LINE0,TLE_LINE1,TLE_LINE2,SEMIMAJOR_AXIS,PERIOD,APOGEE,PERIGEE,DECAYED
51961.0,STARLINK-3689,PAYLOAD,2022-04-06 14:00:01,15.72807367,0.0001269,53.2169,1.0977,133.0729,19.0968,0.0036231,0.00532503,0.0,0 STARLINK-3689,1 51961U 22025F   22096.58334491  .00532503  00000-0  36231-2 0  9994,2 51961  53.2169   1.0977 0001269 133.0729  19.0968 15.72807367  5696,6729.015,91.556,351.7340000000001,350.026,0.0
51961.0,STARLINK-3689,PAYLOAD,2022-04-06 20:00:01,15.73361764,0.0001488,53.2171,359.8633,132.1873,356.5824,-0.004126,-0.00547339,0.0,0 STARLINK-3689,1 51961U 22025F   22096.83334491 -.00547339  00000-0 -41260-2 0  9995,2 51961  53.2171 359.8633 0001488 132.1873 356.5824 15.73361764  5737,6727.434,91.524,350.3,348.298,0.0
51961.0,STARLINK-3689,PAYLOAD,2022-04-06 22:00:00,15.73099586,0.0001551,53.2173,359.4504,123.6352,117.4356,-0.0008777999999999,-0.00121531,0.0,0 STARLINK-3689,1 51961U 22025F   22096.91667824 -.00121531  00000-0 -87780-3 0  9993,2 51961  53.2173 359.4504 0001551 123.6352 117.4356 15.73099586  3709,6728.181,91.539,351.09,349.00300000000016,0.0
51961.0,STARLINK-3689,PAYLOAD,2022-04-07 04:00:00,15.73207022,0.0001334,53.2168,358.2241,127.3884,90.348,7.5098e-06,4.34e-06,0.0,0 STARLINK-3689,1 51961U 22025F   22097.16667824  .00000434  00000-0  75098-5 0  9998,2 51961  53.2168 358.2241 0001334 127.3884  90.3480 15.73207022  5792,6727.875,91.533,350.63800000000015,348.843,0.0
51961.0,STARLINK-3689,PAYLOAD,2022-04-07 14:00:01,15.73168599,0.0001276,53.2166,356.1598,149.5599,269.3554,0.00016173,0.00022107,0.0,0 STARLINK-3689,1 51961U 22025F   22097.58334491  .00022107  00000-0  16173-3 0  9993,2 51961  53.2166 356.1598 0001276 149.5599 269.3554 15.73168599  3700,6727.985,91.535,350.708,348.991,0.0
51961.0,STARLINK-3689,PAYLOAD,2022-04-07 22:00:00,15.73193694,0.0001103,53.2164,354.5118,148.5788,359.2387,0.0003378,0.00047041,0.0,0 STARLINK-3689,1 51961U 22025F   22097.91667824  .00047041  00000-0  33780-3 0  9996,2 51961  53.2164 354.5118 0001103 148.5788 359.2387 15.73193694  3680,6727.913000000001,91.534,350.52,349.036,0.0
51961.0,STARLINK-3689,PAYLOAD,2022-04-08 06:00:00,15.73265704,0.0001058,53.2157,352.8628,142.9294,93.8302,-0.0002952,-0.00041958,0.0,0 STARLINK-3689,1 51961U 22025F   22098.25001157 -.00041958  00000-0 -29520-3 0  9995,2 51961  53.2157 352.8628 0001058 142.9294  93.8302 15.73265704  5961,6727.708000000001,91.529,350.285,348.861,0.0
51961.0,STARLINK-3689,PAYLOAD,2022-04-08 14:00:03,15.73248272,0.0001436,53.2159,351.211,142.6411,183.2511,-0.00024679,-0.00035183,0.0,0 STARLINK-3689,1 51961U 22025F   22098.58336806 -.00035183  00000-0 -24679-3 0  9996,2 51961  53.2159 351.2110 0001436 142.6411 183.2511 15.73248272  3707,6727.7580000000025,91.53,350.589,348.656,0.0
51961.0,STARLINK-3689,PAYLOAD,2022-04-08 22:00:00,15.73174306,0.0001522,53.2163,349.5631,131.3892,283.3206,0.00011207,0.00015119,0.0,0 STARLINK-3689,1 51961U 22025F   22098.91667824  .00015119  00000-0  11207-3 0  9998,2 51961  53.2163 349.5631 0001522 131.3892 283.3206 15.73174306  3680,6727.968000000003,91.535,350.857,348.809,0.0
51961.0,STARLINK-3689,PAYLOAD,2022-04-09 14:00:01,15.73205251,0.0001723,53.2174,346.2471,127.6972,104.6119,-1.1478e-05,-2.232e-05,0.0,0 STARLINK-3689,1 51961U 22025F   22099.58334491 -.00002232  00000-0 -11478-4 0  9998,2 51961  53.2174 346.2471 0001723 127.6972 104.6119 15.73205251  3703,6727.88,91.533,350.904,348.586,0.0
51961.0,STARLINK-3689,PAYLOAD,2022-04-09 16:00:00,15.73204232,0.0001759,53.2177,345.8349,129.5038,215.039,6.4364e-06,2.83e-06,0.0,0 STARLINK-3689,1 51961U 22025F   22099.66667824  .00000283  00000-0  64364-5 0  9991,2 51961  53.2177 345.8349 0001759 129.5038 215.0390 15.73204232  6189,6727.8830000000025,91.533,350.932,348.565,0.0
51961.0,STARLINK-3689,PAYLOAD,2022-04-09 22:00:00,15.73200574,0.0001486999999999,53.2161,344.6148,129.0595,192.4401,0.0001258,0.00017071,0.0,0 STARLINK-3689,1 51961U 22025F   22099.91667824  .00017071  00000-0  12580-3 0  9993,2 51961  53.2161 344.6148 0001487 129.0595 192.4401 15.73200574  6228,6727.894,91.533,350.759,348.7580000000001,0.0
51961.0,STARLINK-3689,PAYLOAD,2022-04-10 14:00:01,15.73205871,0.0001585,53.2156,341.3141,139.4837,359.8919,-0.00024867,-0.00035383,0.0,0 STARLINK-3689,1 51961U 22025F   22100.58334491 -.00035383  00000-0 -24867-3 0  9999,2 51961  53.2156 341.3141 0001585 139.4837 359.8919 15.73205871  6321,6727.878000000002,91.533,350.81,348.677,0.0
51961.0,STARLINK-3689,PAYLOAD,2022-04-10 20:00:01,15.73233329,0.0001425,53.216,340.0783,139.7183,336.3666,-0.00068009,-0.00095131,0.0,0 STARLINK-3689,1 51961U 22025F   22100.83334491 -.00095131  00000-0 -68009-3 0  9990,2 51961  53.2160 340.0783 0001425 139.7183 336.3666 15.73233329  6366,6727.8,91.531,350.624,348.706,0.0
51961.0,STARLINK-3689,PAYLOAD,2022-04-10 22:00:00,15.73205656,0.0001357,53.2159,339.6665,137.3844,90.9427,-0.00046691,-0.00065654,0.0,0 STARLINK-3689,1 51961U 22025F   22100.91667824 -.00065654  00000-0 -46691-3 0  9998,2 51961  53.2159 339.6665 0001357 137.3844  90.9427 15.73205656  3715,6727.879,91.533,350.657,348.831,0.0
51961.0,STARLINK-3689,PAYLOAD,2022-04-11 12:00:00,15.73147928,0.0001328,53.216,336.7785,144.8621,148.9845,0.00045874,0.0006411,0.0,0 STARLINK-3689,1 51961U 22025F   22101.50001157  .00064110  00000-0  45874-3 0  9991,2 51961  53.2160 336.7785 0001328 144.8621 148.9845 15.73147928  6473,6728.044,91.536,350.802,349.015,0.0
51961.0,STARLINK-3689,PAYLOAD,2022-04-11 14:00:01,15.73183297,0.0001399,53.216,336.3659,141.74200000000005,264.3174,-1.9502e-05,-3.354e-05,0.0,0 STARLINK-3689,1 51961U 22025F   22101.58334491 -.00003354  00000-0 -19502-4 0  9994,2 51961  53.2160 336.3659 0001399 141.7420 264.3174 15.73183297  3700,6727.943,91.534,350.749,348.867,0.0
51961.0,STARLINK-3689,PAYLOAD,2022-04-11 20:00:01,15.73210111,0.0001414,53.2158,335.1304,134.4227,248.3276,-0.0008655,-0.00120418,0.0,0 STARLINK-3689,1 51961U 22025F   22101.83334491 -.00120418  00000-0 -86550-3 0  9999,2 51961  53.2158 335.1304 0001414 134.4227 248.3276 15.73210111  6527,6727.866,91.533,350.68300000000005,348.78,0.0
51961.0,STARLINK-3689,PAYLOAD,2022-04-11 22:00:00,15.73166004,0.0001402,53.2156,334.7185,129.524,5.4632,-0.0004061,-0.00057145,0.0,0 STARLINK-3689,1 51961U 22025F   22101.91667824 -.00057145  00000-0 -40610-3 0  9990,2 51961  53.2156 334.7185 0001402 129.5240   5.4632 15.73166004  3687,6727.9919999999975,91.535,350.8,348.914,0.0
51961.0,STARLINK-3689,PAYLOAD,2022-04-12 04:00:00,15.73113326,0.0001434,53.2151,333.4817,126.2773,345.3541,0.00052233,0.00073053,0.0,0 STARLINK-3689,1 51961U 22025F   22102.16667824  .00073053  00000-0  52233-3 0  9996,2 51961  53.2151 333.4817 0001434 126.2773 345.3541 15.73113326  6575,6728.142,91.538,350.972,349.042,0.0
51961.0,STARLINK-3689,PAYLOAD,2022-04-12 14:00:01,15.73155856,0.0001608,53.2152,331.4178,137.6481,175.0615,0.00073561,0.00103705,0.0,0 STARLINK-3689,1 51961U 22025F   22102.58334491  .00103705  00000-0  73561-3 0  9998,2 51961  53.2152 331.4178 0001608 137.6481 175.0615 15.73155856  3705,6728.021,91.536,350.968,348.80400000000014,0.0
51961.0,STARLINK-3689,PAYLOAD,2022-04-12 20:00:01,15.73203679,0.0001485,53.2154,330.1824,133.4217,155.9473,0.00016756,0.00022964,0.0,0 STARLINK-3689,1 51961U 22025F   22102.83334491  .00022964  00000-0  16756-3 0  9996,2 51961  53.2154 330.1824 0001485 133.4217 155.9473 15.73203679  6681,6727.885,91.533,350.749,348.751,0.0
51961.0,STARLINK-3689,PAYLOAD,2022-04-12 22:00:00,15.73204144,0.0001443,53.2154,329.7706,131.0869,270.5157,0.00025748,0.00035676,0.0,0 STARLINK-3689,1 51961U 22025F   22102.91667824  .00035676  00000-0  25748-3 0  9999,2 51961  53.2154 329.7706 0001443 131.0869 270.5157 15.73204144  3694,6727.8830000000025,91.533,350.719,348.778,0.0
51961.0,STARLINK-3689,PAYLOAD,2022-04-13 14:00:03,15.73206049,0.0001501,53.2176,326.452,129.4886,90.1625,-1.7066e-05,-3.015e-05,0.0,0 STARLINK-3689,1 51961U 22025F   22103.58336806 -.00003015  00000-0 -17066-4 0  9995,2 51961  53.2176 326.4520 0001501 129.4886  90.1625 15.73206049  6809,6727.878000000002,91.533,350.75300000000016,348.733,0.0
51961.0,STARLINK-3689,PAYLOAD,2022-04-13 22:00:00,15.73261144,0.000156,53.2149,324.8217,123.876,184.7321,-0.00033841,-0.00047969,0.0,0 STARLINK-3689,1 51961U 22025F   22103.91667824 -.00047969  00000-0 -33841-3 0  9993,2 51961  53.2149 324.8217 0001560 123.8760 184.7321 15.73261144  6853,6727.721,91.53,350.635,348.536,0.0
51961.0,STARLINK-3689,PAYLOAD,2022-04-14 14:00:01,15.73172782,0.0001629999999999,53.2145,321.5206,136.3674,350.1201,-0.00038995,-0.00054929,0.0,0 STARLINK-3689,1 51961U 22025F   22104.58334491 -.00054929  00000-0 -38995-3 0  9997,2 51961  53.2145 321.5206 0001630 136.3674 350.1201 15.73172782  6958,6727.973000000001,91.535,350.934,348.741,0.0
51961.0,STARLINK-3689,PAYLOAD,2022-04-14 22:00:00,15.73137867,0.0001269,53.2145,319.8732,133.3607,82.0263,0.000489,0.00068385,0.0,0 STARLINK-3689,1 51961U 22025F   22104.91667824  .00068385  00000-0  48900-3 0  9999,2 51961  53.2145 319.8732 0001269 133.3607  82.0263 15.73137867  7004,6728.071999999999,91.537,350.791,349.084,0.0
51961.0,STARLINK-3689,PAYLOAD,2022-04-15 04:00:00,15.73202138,0.0001158,53.2142,318.6357,137.1201,54.932,0.00040803,0.00057039,0.0,0 STARLINK-3689,1 51961U 22025F   22105.16667824  .00057039  00000-0  40803-3 0  9995,2 51961  53.2142 318.6357 0001158 137.1201  54.9320 15.73202138  7040,6727.889,91.533,350.533,348.975,0.0
51961.0,STARLINK-3689,PAYLOAD,2022-04-15 14:00:01,15.73295402,0.0001359,53.2145,316.5718,138.2165,255.0575,0.0003009,0.00041993,0.0,0 STARLINK-3689,1 51961U 22025F   22105.58334491  .00041993  00000-0  30090-3 0  9991,2 51961  53.2145 316.5718 0001359 138.2165 255.0575 15.73295402  7115,6727.623000000001,91.528,350.402,348.574,0.0
